id,capacity,address3,postalCode,stateName,latitude,longitude
0120e73f-210e-4f88-8f44-fc3a71b55ec1,6.48,Johor Bahru,,Johor,1.5660631,103.7925544
013c6908-f39d-4468-b16b-e2cc2989cc4d,17.16,JOHOR BAHRU,81100,Johor,1.5471178,103.7738961
030a2eac-f3a6-4894-a94d-776346c01a11,6.66,JOHOR BAHRU,81200,Johor,1.536396121,103.7379654
034f2765-c27a-47ea-9a66-bd047a038f9f,15.84,JOHOR BAHRU,81100,Johor,1.5464841,103.7732772
06719dbc-f398-48a1-ba2a-66c4ec3f5cd6,378.775,Taman Gembira,81200,Johor,1.525348,103.747799
069c70cd-8df6-4d23-9f03-298f4621e290,447.92,,81000,Johor,1.676485439,103.5520466
07f62204-eedc-4fc2-b1f3-a41662a446c6,573.76,,81700,Johor,1.469897633,103.8849475
082ddbce-f774-44cd-a566-4176e54187c1,12.6,JOHOR BAHRU,81100,Johor,1.591711224,103.7619277
092aa615-5b24-4db1-93fa-2bd9957cf5e4,12.375,Ulu Tiram,81800,Johor,1.573844883,103.8060344
099d0cb8-f0ec-4647-899f-ec683d17de2b,9.99,JOHOR BAHRU,81200,Johor,1.516288726,103.6915337
0b35840f-7636-441f-bc4a-476304b5c052,336.87,YONG PENG,83700,Johor,2.0640393,103.3465398
0d354a19-dc5e-463e-a9b1-3f59c8070acc,9.84,ULU TIRAM,81800,Johor,1.5893298,103.8170751
0d990c71-b3ab-4875-a945-f4a1f2e0b104,12,Bandar Nusajaya,79250,Johor,3.146117627,101.6956816
10a01975-3ef0-4a35-bec3-fd771e23bf6e,15.84,JOHOR BAHRU,81100,Johor,1.5472354,103.7740977
12c03d1a-4baa-4eb2-8e44-941d905867d7,355.925,TAMPOI,81200,Johor,1.48999,103.705399
132b6498-0102-4525-9d07-8bd6e98824b1,12.96,YONG PENG,83700,Johor,2.0158042,103.0751151
1471cf7a-32e3-495d-8469-ef6b2c3e6cb2,51.87,Pasir Gudang,81700,Johor,1.473579,103.907895
1515bf21-33e2-4dbd-ada6-b9863bd457e5,55.88,,81400,Johor,1.624946,103.6377439
151b5094-f7c5-41e3-948a-d2936622ac83,449.175,,81400,Johor,1.9343998,103.3587288
15df492a-6462-43e7-a060-eaae60b23e1d,270.16,PASIR GUDANG,81700,Johor,1.471489436,103.8863579
16e0087e-8a0d-43b4-b7c1-356abea290f7,226.8,KELAPA SAWIT,81030,Johor,1.674312,103.5398093
17957df3-2d72-47ed-bb2a-9f0942051614,8.61,JOHOR BAHRU,81100,Johor,1.559882451,103.739918
18edfd2b-98f5-4369-a20f-0795b58045df,4.92,ISKANDAR PUTERI,79100,Johor,1.45881896,103.626908
1cdec7a8-5e8d-44af-8669-79e82267b26b,6.765,ISKANDAR PUTERI,79100,Johor,1.460161405,103.6291434
1d273e3b-2ea3-45c3-8952-cbf0e36dd45f,6.765,JOHOR BAHRU,81200,Johor,1.540098071,103.7374244
1d9188fe-691a-4bdb-9c69-88473c6db904,180.94,,83700,Johor,1.883944,102.7803998
1ec4cb3b-1778-469e-85f3-b1d9eacbfe3a,7.38,Johor Bahru,,Johor,1.480832,103.7620932
1f018535-6a8e-4b44-bacf-70c83ac7b57f,15.15,JOHOR BAHRU,81200,Johor,1.547282979,103.7192837
1f8dd34c-acbd-4b8b-8aa9-c96a7204e2be,7.38,ISKANDAR PUTERI,79000,Johor,1.430497935,103.6505856
202c63c4-b445-4d40-a5d2-a6a86dc938d3,1245.48,,81400,Johor,1.6244302,103.6534132
20524bfd-ac5e-4ccf-9f25-6d700cf85dfa,61.6,ULU TIRAM,81800,Johor,1.544331161,103.8218548
20a67e82-eb90-46fd-9a83-dd4cd80c2cca,2009.7,SENAI,81400,Johor,1.6222141,103.6729535
20e03bd7-9378-4b73-915a-a70e9c2fe21c,9.225,SKUDAI,81300,Johor,1.511362605,103.6606126
2132cd1f-955f-4929-8760-16615e1316a5,71.6,Johor Bahru,81200,Johor,1.521193047,103.7328042
21e55ffe-6cb3-4e37-9307-03016a2dada5,522.695,Johor Bahru,80150,Johor,1.500109,103.765833
22a0a568-9d2e-46ee-8944-57dbe496aa08,9.84,SEGAMAT,85000,Johor,2.496592781,102.8673516
22ab5609-f693-4395-ae53-4df443f4355d,5,PETALING JAYA,47810,Johor,3.1760624,101.5913807
22e553e9-1d55-43a2-b303-16f90ba21d15,9.225,JOHOR BAHRU,81200,Johor,1.483036167,103.6898613
2398df9e-525f-4291-ba4e-b7d6fd051ec4,6.75,JOHOR BAHRU,81200,Johor,1.546810918,103.7203229
247ec358-245d-4eb8-ab1d-70717ac69355,8.61,BATU PAHAT,83000,Johor,1.872045971,102.9330409
258293f1-af8f-4ab4-b963-21d0aa705ef7,9,JOHOR BAHRU,81100,Johor,1.590815711,103.7623653
25c8a2c3-3da9-474b-8e2a-bbffcdc00a58,357.92,Johor Bahru,81200,Johor,1.514148276,103.7034796
265c3f5a-853e-4830-9469-5357cc17f087,172.325,,85000,Johor,1.9343998,103.3587288
27ad5db9-5580-4a0c-bcb7-53a4d86db741,2923,,81700,Johor,1.4575349,103.9808602
28e16182-9e9a-483d-9f38-d85ed75ea5ef,931.11,,85000,Johor,2.5147218,102.8514837
29e78bda-e1fc-4c57-a07f-8511f131dfa4,11.685,SEGAMAT,85020,Johor,2.496615416,102.8676847
2dc5326d-548b-421b-8311-4e3b4a3d7560,7.38,KLUANG,86000,Johor,1.993882,103.361652
2e510341-0783-4c5d-bf1a-257f8b51e3e3,9.81,JOHOR BAHRU,81100,Johor,1.5630889,103.7885595
2e79f9da-ea10-4b62-97fa-ddb80b350a87,1012.32,KULAI,81000,Johor,1.6422313,103.6093049
2f5ac5ae-e2ff-4a71-900a-e14494c458f3,573.61,PASIR GUDANG,81700,Johor,1.46530807,103.9170198
321b6193-1b92-4a52-8b91-0cd7784b83c0,368.28,Pasir Gudang,81700,Johor,1.460000463,103.9703956
32e38090-de0f-49c5-a639-c325bf64f7df,16.65,MASAI,81750,Johor,1.486112681,103.8338393
34066767-9ff4-4126-afa8-93dce8bc31bb,167.21,Yong Peng,83700,Johor,1.969626,103.098373
3426afa2-cbc5-4606-8630-62f36eaf1eee,14.43,MUAR,84000,Johor,2.004608688,102.6020819
346e2072-9a50-451f-bdfa-01163d143af0,1075,PLENTONG,81750,Johor,1.518953792,103.8333588
371fe959-a9ba-44d9-8009-5d55627e3ad6,11.07,JOHOR BAHRU,81100,Johor,1.558245972,103.7765774
3785b44b-4466-44f3-b5cb-69de05f275a3,969.96,,81700,Johor,1.9343998,103.3587288
38578fc6-7cad-4951-a8d9-949bf1da6823,223.86,MASAI,81750,Johor,1.4856819,103.8606824
39db486d-a3fa-459c-a475-618be9474eff,561,Senai,81400,Johor,1.577861933,103.6530364
3a077890-947f-4b3b-a6a8-ca996cb3ed45,3.15,Senai,,Johor,1.6110927,103.6423726
3a0d3cd8-c01e-45c3-941e-ca1d0a8127f8,401.79,PULAU SATU,81550,Johor,1.3603154,103.5880506
3a780195-2a3c-4443-aef1-ee87dce18153,7.38,JOHOR BAHRU,81100,Johor,1.568101759,103.7552522
3abfdd7e-958c-49fb-9d76-d32e02811720,935.4,,81400,Johor,1.6362222,103.6563238
3ad89f76-e799-4ecf-b0b8-3302df2f58cf,6.765,MASAI,81750,Johor,1.509908767,103.8586073
3c889331-882c-4d0f-af60-2b74d053552b,17.22,JOHOR BAHRU,81100,Johor,1.565917494,103.7888891
3d390f74-84e2-4fad-8747-c15e3cd56db7,2632.62,Pasir Gudang,81700,Johor,1.4675474,103.8862757
3d487469-7e85-4d65-b7cb-fad16e9cb983,559.38,YONG PENG,83700,Johor,0.4976317,101.3943308
3e181cce-8648-49bc-8427-ca181d1c2491,7.14,,81200,Johor,1.462543645,103.697882
3e5f5cc9-643e-4d1a-a2b8-7678ea60753d,448.8,YONG PENG,83700,Johor,1.982743267,103.1021443
41c6bfb0-4b15-4353-b484-b3218cd844d4,133.525,Nusajaya,79250,Johor,1.4788714,103.6365662
43548e3b-262a-4f42-8de2-c354333689eb,12.75,Yong Peng,83700,Johor,2.0175192,103.084079
43b9e02a-f363-4bdf-91c4-f09a33e34c6e,3.15,Senai,,Johor,1.6107124,103.6405378
447a4b14-1f28-4e51-874a-142fde8b6d39,336.42,BATU PAHAT,83700,Johor,2.054331,103.045912
44f8b2f6-0ce6-45e8-bb4a-2f5f5ff2b99d,12.3,KULAI,81000,Johor,1.652636975,103.6296598
4558435f-5e59-49c3-9d21-39acf86e9daa,7.38,Johor Bahru,,Johor,1.5582613,103.6121126
4610e8a4-0b7a-4ab9-9210-4bf6bc90ee89,548.27,,81380,Johor,1.9343998,103.3587288
48fcac06-fd91-475f-99c7-8e40f4d2201b,8.61,JOHOR BAHRU,81100,Johor,1.559952801,103.7902536
49ca3025-cb2e-4f95-b63f-b20c90dd09fa,11.07,BATU PAHAT,83000,Johor,1.872326369,102.9357877
4ff5872e-a0ed-4250-a524-57200d4c0ba4,4.44,SKUDAI,81300,Johor,1.55810477,103.6801139
503f267d-e0b9-4676-bf7f-ce00b6047be3,573.32,JOHOR BAHRU,81100,Johor,1.470059006,103.9676368
51be7ea9-8aac-4d06-969f-4d554c190bac,17.22,BATU PAHAT,83000,Johor,1.868346,102.934655
52651b13-907e-48b0-9088-f97234c875db,224.4,JOHOR BAHRU,80350,Johor,1.507801,103.7261135
53bdc349-50ac-4264-83f8-7f74cf48b967,719.64,BATU PAHAT,83300,Johor,1.860717462,102.9944312
54f98240-7f0f-4beb-b149-0ccbdc855c7f,5.85,ISKANDAR PUTERI,79100,Johor,1.460155776,103.6287316
55b1eb30-5a8b-4af9-accf-d08a1e959de0,5.67,MUAR,84000,Johor,2.028960581,102.568987
568418f6-f893-4673-bb8c-c070b0eead2b,33,Ulu Tiram,81800,Johor,1.553576796,103.8220541
568aca4c-1669-4cc1-ad0f-f5659e039bc6,16.65,YONG PENG,83700,Johor,2.018497,103.076948
5ae5a970-201a-428d-b48d-0b7cc8d19134,399.6,,,Johor,,
5d6dbca6-5e72-4071-be61-a02947157566,435.24,ULU TIRAM,81800,Johor,3.038968,101.5950033.038968
5ebf2fcf-3471-4992-8a51-1017199d22e9,10.455,KULAI,81100,Johor,1.657790712,103.6481295
5ef87aef-eba6-454e-8e6e-868836824c22,7.38,JOHOR BAHRU,81100,Johor,1.554436218,103.7755752
602ddbe4-8b91-4d44-b8df-20582fe2000a,172.325,,,Johor,,
60f786ea-b80d-4d9b-851e-b97de35d2ae7,379.85,JOHOR BAHRU,81100,Johor,1.5024765,103.7058106
6218c464-7ff4-4212-ad65-12b9dea30d81,3.15,Senai,,Johor,1.6110927,103.6423726
623aa80c-5bbf-43e9-a906-f0fb615b8169,351.75,Ulu Tiram,81800,Johor,1.54894767,103.8259388
6319d5dd-c6f5-4cee-b93b-cf6c37462ae3,373.56,JOHOR BAHRU,81200,Johor,1.521180689,103.6957778
633008c1-8499-46cc-a184-a4dee3e8bb6d,241.15,MASAI,81750,Johor,1.4856819,103.8606824
664669bc-67d7-4a54-bb82-6a6c14627846,11.07,JOHOR BAHRU,81100,Johor,1.593573618,103.7657809
6658e7b3-d291-41c8-bcd7-db0cc9075b47,16.65,JOHOR BAHRU,81560,Johor,1.402884054,103.6114689
667982c6-22a7-4d50-a27b-b413f684e9e6,167.2,Yong Peng,83700,Johor,2.0356195,103.0545528
670330f6-919c-45dd-a375-3099f35e0c63,14.58,JOHOR,79100,Johor,1.455873413,103.6375131
67ff34b4-a99a-4dd9-9e49-840c30c40cbf,44.88,,81400,Johor,1.624946,103.6377439
68edd351-ed19-45b3-b663-a54c582f913a,18.15,JOHOR BAHRU,81100,Johor,1.512365,103.782495
69ae631e-876c-486a-8513-00eba3a128f6,10,Batu Pahat,83000,Johor,1.8047191,102.9657686
69b6fcec-8e6b-4ec6-965e-3dd2fb43eee3,7.38,MUAR,84000,Johor,2.076757,102.589083
6a840d67-5e02-43fd-84a3-60011a239e28,561.59,KULAI,81000,Johor,1.671703671,103.5499383
6b00fb53-2d1e-4cfb-bff0-55f19840eadd,6.765,JOHOR BAHRU,81100,Johor,1.529014063,103.794448
6c2d9e5e-6df7-45b2-8d50-eb8ed36837ad,8.16,,80200,Johor,1.468071191,103.7303934
6c9df5e9-49c4-4e2b-9b99-7d13b5e867d0,13.2,JOHOR BAHRU,81100,Johor,1.526516842,103.7954941
6cfc3d08-724b-488f-a484-547ab4d78752,5.67,ULU TIRAM,81800,Johor,1.5740516,103.7957774
6e0e291d-4cb8-4b4d-924b-8d97e7d148fb,7.38,JOHOR BAHRU,81200,Johor,1.53721296,103.7370306
6e7d2dcf-e0ea-42e4-9f39-e99f8769c662,8.61,KLUANG,86000,Johor,2.010461297,103.3275257
704113fe-7f74-434b-b340-130d564c5743,6.765,KLUANG,86000,Johor,2.052726614,103.3194276
70e3cca2-3775-4011-85a8-f3bce2c633e5,3.15,Senai,,Johor,1.6110927,103.6423726
735694ca-94e8-4f4b-8552-38a97a72c20b,291.28,JOHOR BAHRU,80350,Johor,1.507801,103.7261135
74bb4e13-caba-42f9-9f04-ac147e54d419,11.44,JOHOR BAHRU,80250,Johor,1.4965794,103.7630358
76326a04-a756-449e-8803-fca634034f5f,274.68,,83700,Johor,2.0990492,103.0443743
766414e4-87e8-43bd-9b71-04779c9d7f55,7.38,KULAI,81000,Johor,1.668118743,103.6462467
76cf51e8-65a3-4214-b712-7be026ef9270,16.2,JOHOR BAHRU,81200,Johor,1.481300934,103.6703653
76df68fb-c57c-4c7e-ba86-ede892c819d1,435.24,Johor Bahru,81800,Johor,1.5500792,103.8238224
76eabf24-8ec2-4c1f-918c-6665acd46e56,3.15,Senai,,Johor,1.6104922,103.638747
7850543e-d88a-4ea6-b4aa-1afcfa401e11,17.22,JOHOR BAHRU,79150,Johor,1.48206802,103.6724218
791e9efb-ab70-4541-81bb-b8f8400b554d,167.2,,83700,Johor,1.993958,103.05202
7959b9be-a9f3-46c3-9e4b-c53e3869eea2,6.765,JOHOR BAHRU,81100,Johor,1.5152363,103.7931576
7ae59dc7-80f0-43c6-8adb-a62469a5b36b,6.765,JOHOR BAHRU,80400,Johor,1.480506351,103.7772696
7b0fbca8-2fca-4d93-9a20-1e16eb7ba9ab,200.355,,83600,Johor,1.8689976,102.8034986
7b5a7582-38f8-46fb-af97-b07d163d1bd2,9.435,JOHOR BAHRU,81200,Johor,1.47534977,103.6611675
7bc9ebcf-a52c-4b7a-ba1b-b94bc0c5078d,167.2,,86100,Johor,1.9475974,102.9823115
7df8c621-4038-47f4-8372-3713a5aaa984,137.34,YONG PENG,83700,Johor,2.062804,103.1220209
7e8467b2-b10c-4e75-825e-9a500a8c5bfe,179.76,,83700,Johor,2.1587607,103.0398554
7ecd6335-bc7e-4c45-b992-7369d57ac6ad,6.765,JOHOR BAHRU,81100,Johor,1.557842563,103.750513
81acbc49-32cc-405f-95da-979398792633,523.25,SENAI,81400,Johor,1.6276687,103.6488637
81faa26d-dfe3-4216-8a20-b4b917444b2a,3.15,Senai,,Johor,1.6110927,103.6423726
866a052d-475f-4b28-b007-72904a6a4050,11.07,JOHOR BAHRU,81100,Johor,1.5581395,103.7794718
869f9564-e8d8-4f49-97e9-b5c185178ae8,558.54,KAWASAN PERINDUSTRIAN SENAI 4,81400,Johor,1.6244302,103.6534132
87a1040a-6f69-49b9-a9f8-22b13fcf3e0f,10.455,NUSAJAYA,79100,Johor,1.4589577,103.6378474
89342daf-e505-471e-bbb3-d6b4a33e150d,7.38,KLUANG,86000,Johor,2.012498089,103.3285794
89a512f6-fb1c-478a-8e3d-5210b465af43,160.775,YONG PENG,83700,Johor,2.3812006,103.0208591
89a97a82-8861-45e7-9b42-7cc3cccc77b8,220,,82000,Johor,2.023413,102.6704292
89b59115-cd86-49c4-9c1e-1017f8621999,19.8,JOHOR BAHRU,81100,Johor,1.5288077,103.7916914
8b7f2222-0f18-42e2-90bc-e9e92447dabd,13.32,NUSAJAYA,79100,Johor,1.451227293,103.6392198
8cc05394-b771-4a9a-bb7a-0fcee123ebc9,181.64,Yong Peng,83000,Johor,1.982743267,103.1021443
8ced4784-d311-41ad-b508-bcc098cbc054,1342.55,,79200,Johor,1.4510798,103.5996956
8cf44075-9e0b-4f17-8e52-d2aedb35c120,259.92,Yong Peng,83700,Johor,2.077828,103.062554
8d778f48-4c5f-4902-abc9-a0f62b23565f,518.42,PASIR GUDANG,81700,Johor,1.466293924,103.9163823
8dae5204-fe52-442b-8678-e0d91221cb90,548.27,Plentong,81750,Johor,1.521717,103.815179
8daec8ed-cad3-420b-959f-579c99b11d97,14.76,ISKANDAR PUTERI,79100,Johor,1.46207579,103.6232452
8e32e895-53b4-4def-8566-8bed403e5dc7,8.61,JOHOR BAHRU,81100,Johor,1.559956823,103.7902395
8f16dcde-8760-466e-ac17-9f9df1c8425c,459.94,"BANDAR INDAHPURA,",81000,Johor,1.6335988,103.6069762
90230a2b-9bb5-406c-b4f1-3a09894ed40f,7.38,JOHOR BAHRU,80400,Johor,1.482916897,103.7695041
93cac0e6-3f7f-4051-b8ea-16715c105d78,0,,81030,Johor,1.674312,103.5398093
9440a907-2866-4318-ae22-701ee1fef29a,10.53,YONG PENG,83700,Johor,2.005267758,103.0680982
9461ed41-d4b2-4499-91e9-bff7d0564d8c,8.61,ISKANDAR PUTERI,79200,Johor,1.483252,103.586536
95561629-5342-47ec-a0d7-0c817867e1a5,1432.19,JLN JEMALUANG,86800,Johor,1.7959545,103.9500019
9644106a-ec52-4c15-8634-6a24bab7ef42,224.4,,83700,Johor,1.8814303,103.2592673
964d4af4-7bd7-4929-9e08-4ae517331123,45.5,Kulai,81000,Johor,1.6294751,103.6048447
9738bc47-7677-4aee-8467-2acf43839e4a,6.075,JOHOR,80400,Johor,1.4805379,103.7803383
9750cda9-93e2-4c26-ae63-fa8f56c04391,10.545,ISKANDAR PUTERI,79100,Johor,1.458406,103.6356887
97c6d8f6-c49a-402c-a0c3-4ea874234e01,8.8,Senai,,Johor,1.607361,103.6374631
98e60330-fd21-435c-b5e5-61a8a3ff55ae,8.61,JOHOR BAHRU,81100,Johor,1.596312445,103.7543138
991cc7f2-afe1-4d68-9143-636524a7364d,17.22,BATU PAHAT,83000,Johor,1.867841352,102.9336709
9a653843-9c54-42f0-bda8-bbc3b4080156,3.15,Senai,,Johor,1.6107124,103.6405378
9bd2c72f-ce4d-4fd3-866c-09674564fa59,83.16,Johor Bahru,79200,Johor,1.4341499,103.5980529
9e54b6f0-51f9-478e-99a3-506c8551e1f0,71.72,KOTA TINGGI,81900,Johor,1.7210686,103.8976422
9e77ef69-2607-45ab-bed1-1780773f5aa2,449.175,,45300,Johor,1.9343998,103.3587288
9f43a36f-d16c-43a0-ad95-15bd10bf0332,15.84,JOHOR BAHRU,81100,Johor,1.5471715,103.7740185
a18fd7da-4ae1-43ce-9683-eb1f38b3f142,522.37,JOHOR BAHRU,81100,Johor,4.708125,101.099237
a25617a0-32af-4992-8884-3ad44777ee2c,925,,81400,Johor,1.6308018,103.6476254
a2d90861-b8d0-48b6-8fb3-4905ada74411,4.95,Johor Bahru,,Johor,1.5669633,103.7437458
a310bb72-8432-4fa9-a425-e475ff6163ed,7.38,KOTA TINGGI,81900,Johor,1.7336,103.7079301
a37e57ac-bd5c-4640-8a4b-5143d698ad2a,12.75,Batu Pahat,83300,Johor,1.860717462,102.9944312
a4406347-70ba-42ff-82ab-b24d90009030,320.355,JOHOR BAHRU,81100,Johor,1.5311672,103.7406936
a46590eb-41ac-483f-8472-080c7f751dfe,412.565,Nusajaya,79250,Johor,1.4794247,103.6371996
a55abf04-25af-4675-86b9-cda12349e9d2,4.92,JOHOR BAHRU,81100,Johor,1.525772912,103.767113
a6fc951f-d9a9-4249-acc3-ca4b12dca728,224.2,Yong Peng,83700,Johor,2.054331,103.045912
a8eaec7a-ce5c-4c69-ad8e-ef0241284975,17.76,NUSAJAYA,79100,Johor,1.452779,103.639295
a903a641-619a-4cca-8480-d18a90e857f9,7.38,JOHOR BAHRU,81100,Johor,1.511103,103.779944
accfb837-428a-4c6e-86a6-9fe9dc4eda62,620.6," BANDAR INDAHPURA, KULAI",81000,Johor,1.6305621,103.6107394
ad8aee24-2a81-468d-b0e6-b2e0ee0cf71f,3.15,Senai,,Johor,1.6110927,103.6423726
ae8bb8f7-c4c6-430e-93f9-20d1c5cdf149,298.4,JOHOR BAHRU,81200,Johor,1.521193047,103.7328042
b12d0ec8-51c4-48b4-9cf9-f11600aae6ee,167.2,Yong Peng,83730,Johor,1.96991,103.132381
b18739c1-fb58-4d07-87be-82dfe0eab760,11.07,ULU TIRAM,81800,Johor,1.583483882,103.7869088
b3675384-778b-4474-81f8-3c1fee21d922,209.05,JOHOR BAHRU,81100,Johor,1.5331331,103.7514649
b478d576-376b-4741-9072-b9bdc5fd64ff,552.12,Johor Bahru,81100,Johor,1.5326422,103.736512
b51c59b0-c25f-4933-9c48-e44a96cfb0cf,6.765,ULU TIRAM,81800,Johor,1.570985786,103.8078999
b56f5c18-fc79-49f9-a151-4a0afd00e081,90.95,Iskandar Puteri,79250,Johor,1.560653,103.82668
b59ad193-a82c-4d83-8c35-a29ee74bc9f1,573.32,,81100,Johor,1.470059006,103.9676368
b612a135-11f2-4507-8869-228b386772b4,489.77,Yong Peng,83700,Johor,1.982743267,103.1021443
b7181fc4-eb6b-4472-b2aa-69e653b3e9cc,112.2,SENAI,81400,Johor,1.6124457,103.6473486
b7494b49-48b4-41f3-85c9-02cd9c0dbef0,4.455,JOHOR,81200,Johor,1.4865627,103.6839551
b8951276-ad6d-4cf0-ba3b-d7ab74b74fc4,17.22,JOHOR BAHRU,81100,Johor,1.589067228,103.7378471
b89786a4-bc6e-4b6f-8042-ed08e2311f12,7.125,Gelang Patah,,Johor,1.3996359,103.6017759
b981a30b-db21-4354-ab44-b6871e8f5a0f,120,Ulu Tiram,,Johor,1.5492419,103.8255354
bbbe0d55-ae0b-4ed0-8681-e07d5c126182,7.38,JOHOR BAHRU,81100,Johor,1.575739679,103.7686673
bca0b054-3b92-40a6-8c66-de7900e1608e,6.075,MASAI,81750,Johor,1.4849739,103.8172722
be2a865f-5e9d-494f-85ca-dd3cba5c45e9,336.6,"CHAAH BARU-YONG PENG,  BATU PAHAT",83700,Johor,2.077828,103.062554
bed083ea-e6ec-4ee5-b07c-5418c05b2c59,1286,,81700,Johor,1.4440655,103.9061338
bfa1d9d1-9c15-4979-bc75-b41f3dbc49ac,17.12,NUSAJAYA,79150,Johor,1.419078,103.605889
c0d6eedf-f63f-48a2-93be-7e27b1f21622,11.07,BATU PAHAT,83000,Johor,1.867419958,102.9334034
c320ca48-26b3-4bdf-8ed1-b13f1b2e9ba0,75.03,JOHOR BAHRU,81300,Johor,1.519255,103.6798369
c3d74837-a684-453d-9965-dad458f7c6e4,6.765,JOHOR BAHRU,81100,Johor,1.556924933,103.747388
c43c164d-1114-468d-9073-ac3af18c3e61,12.3,MASAI,81750,Johor,1.484214694,103.8354635
c631b6db-10ff-40e6-8c8f-43718f7ee71e,386.708,,81000,Johor,1.6687049,103.5509296
c82ca325-e31b-45c9-b50e-02d9c93e2974,6.765,KULAI,81000,Johor,1.64748483,103.5946569
c8c8f495-b529-4902-8f96-e131448b3398,3.96,NUSAJAYA,81300,Johor,1.493390045,103.645966
c95d5243-f4d0-4e6d-8c3e-4d8b24eb3057,1300.65,JOHOR BAHRU,81200,Johor,1.5509631,103.701519
c9a2c52f-4707-41ee-b8a0-9b547f2b9cb8,6.765,JOHOR BAHRU,79100,Johor,1.476896372,103.6456296
cb558987-fa76-463c-99ea-d37651c4bf07,7.995,NUSAJAYA,79100,Johor,1.458073884,103.6497786
cccbf508-3fa1-49d2-979c-98918883e483,8.61,KLUANG,86000,Johor,2.035628,103.336058
ce29641d-86f5-4a3d-9a7d-38c3b662f224,390.525,PASIR GUDANG,81700,Johor,1.4724125,103.9014129
d035149a-86c1-48d4-8e3c-ad6d9fbd5375,16.605,JOHOR BAHRU,81100,Johor,1.5698112,103.7760587
d0c3e981-1b8f-4b42-adf0-38a4efa2f963,539, JOHOR BAHRU,81300,Johor,1.543196,103.6965002
d20b1811-462a-4f6b-8c42-6972aa4afca4,6.765,JOHOR BAHRU,81200,Johor,1.541940226,103.7327318
d24f249e-603e-4b53-a809-11dec9ff75a9,10.395,Johor Bahru,,Johor,1.48079,103.7648131
d2e8a910-c7a5-44f7-85bb-a6ed2ed85d36,5.85,ISKANDAR PUTERI,79100,Johor,1.458558683,103.6355228
d49d90cf-fa79-4247-bee3-7b5c2a2a0f08,17.22,JOHOR BAHRU,81200,Johor,1.492754648,103.7209967
d52eb678-a43c-4e04-95d9-3e436b125a58,13.5,,81100,Johor,1.6059167,103.821517
d76f60ea-94c3-4e50-aa44-5561ef442db0,66.6,KELAPA SAWIT,81030,Johor,1.674312,103.5398093
d9b01866-619d-4626-9bc1-8ddc6094b739,166.32,Batu Pahat,83500,Johor,1.929352027,102.8531015
da470df7-4796-47b9-8258-c63828be3b75,789.76,,79200,Johor,1.4708869,103.599422
dad0c1e5-3982-41e3-8edd-8d2cc4b13e3c,93.275,Senai,81400,Johor,1.630472,103.6521068
dc02f8f7-7e0f-4716-b37d-f89f72d0043e,975.39,Kulai,81000,Johor,1.6555388,103.5975248
debb5c55-b065-40b2-88e2-51c1a6eb560e,269.23,YONG PENG,83700,Johor,1.8817212,103.2430934
e2765b3a-3fd5-415c-a931-db167aacdefb,137.34,,83700,Johor,1.8814303,103.2592673
e2789552-2958-4735-a98d-84235cc3ba7a,186.84,,81200,Johor,1.525735,103.7477248
e39e5ba2-6db1-481c-a6e8-19a70f9387f1,317.735,Pasir Gudang,81700,Johor,1.4481163,103.9223709
e3ada719-6caa-44f3-88e8-f90d1d809963,11.02,Skudai,81300,Johor,1.531681923,103.6678098
e60e1083-9ea5-442d-aa80-a13a546692b7,89.88,JOHOR BAHRU,80200,Johor,1.4900638,103.7100393
e64858a8-ac2e-4dd7-9a10-b1ca29d05f36,180.94,YONG PENG,83700,Johor,2.0990492,103.0443743
e6b12e07-b841-49e3-ae85-11027803d1be,7.38,JOHOR BAHRU,81550,Johor,1.506872,103.601432
e7b466f2-ff1e-4ddb-bbce-90e8102f63fc,7.38,JOHOR BAHRU,81100,Johor,1.575639816,103.786659
e8e0b0dd-a98b-44ab-9a40-d1af0e01667d,469.26,SKUDAI,81300,Johor,1.5451173,103.6560275
e8fd4205-574b-4f8f-8319-5099bf5c975b,454.75,"81400, Senai",81400,Johor,1.61172,103.66784
e94bf718-f06e-488e-b0ee-9ca7b7b9bec7,4.455,JOHOR BAHRU,81100,Johor,1.5539885,103.7755797
e955d059-a329-4c00-8fab-80357b227c94,7.38,JOHOR BAHRU,80400,Johor,1.483093768,103.7693011
ea81ff5e-20a8-40a3-8834-f22dcba34bdd,8.61,BATU PAHAT,83000,Johor,1.872034533,102.9336066
ee167ff8-3b51-4763-b5ec-0cd954f40d42,217.095,PASIR GUDANG,81700,Johor,1.4621947,103.9085989
eeca9115-c076-4477-b9a9-34c2c6720ff2,535.535,,79200,Johor,1.455967,103.601822
ef38fe00-5356-4dc0-96cd-ecde646f0fb2,181.72,JOHOR BAHRU,81300,Johor,1.5147372,103.6348777
ef9ae5ff-5bab-4a0b-ac62-054395ba9d5f,7.38,JOHOR BAHRU,81300,Johor,1.507469,103.629363
f0191cf3-20aa-49fd-8dbc-8cd3b9e6c816,12,,81400,Johor,1.596631587,103.6795893
f0f05dfb-be4b-48f2-a7af-4458e4919d80,788.92,,81700,Johor,1.447779257,103.9115666
f1ceb3d4-4323-49c2-819f-8e255c836d10,9.24,,80200,Johor,1.574126992,103.7622949
f2bf0532-1e20-4b9e-b5a3-2814ff676b3d,167.8,,83700,Johor,1.969626,103.098373
f5762899-0bff-4e7a-90f8-bd111ddbb62c,10,Muar,84000,Johor,2.0452778,102.6388889
f58b3d9e-7405-4c01-98a6-a88269895fe8,237.08,,84600,Johor,2.2462489,102.6690262
f5ad0ff7-b20a-49bd-90cc-b46a7acf412e,3.3,,81100,Johor,1.538617724,103.8120455
f6ccde75-7732-44d4-92a7-0f2f5eeaaadd,17.835,KULAI,81000,Johor,1.653164064,103.6407791
f7c39943-8236-426e-984d-4e189915440b,183.5,,81700,Johor,2.0708041,103.865327
f853db5c-ee58-4502-9121-a1e21b64978e,4.5,ISKANDAR PUTERI,79000,Johor,1.428356316,103.6507731
f8a160f7-cbc2-4662-89ab-a5fa3bc79d65,7.38,JOHOR BAHRU,81300,Johor,1.506928553,103.6780328
f93771fc-c020-4784-96c4-64cb9a14c090,457.435,,79200,Johor,1.455967,103.601822
fa06834a-02b4-42a2-a5cb-4a348d9566a9,412.565,Nusajaya,79250,Johor,1.4788714,103.6365662
fa9b71ef-6f61-4318-a2ad-fbcec15fbeba,250.7,SENAI,81400,Johor,1.5969168,103.6785128
fcea4141-e370-4ef0-bbf8-690f559a6cbf,629.925,SENAI,81400,Johor,1.6255379,103.6620915
fd600285-0989-41bb-9aa4-b14daf4d755b,2,ALOR SETAR,6550,Johor,6.1749086,100.375268
ff4679a6-a746-46c6-9f9c-658c6169377d,811.41,Johor Bahru,79200,Johor,1.4708869,103.599422
ff9851b4-5abd-449e-989f-9b6f33b3239d,573.52,LABIS,85300,Johor,2.2530156,103.0417538
ffcf37b2-fc6b-4c54-ba8e-8f0c6cc7be21,7.38,KULAI,81000,Johor,1.666426,103.568984